{
  "type": "FeatureCollection",
  "features": [
    {
      "type": "Feature",
      "properties": {
        "norad_id": 39773,
        "name": "EUTELSAT 3B",
        "group": "eutelsat",
        "lat": -0.08125225222074013,
        "lon": -103.9436300230067,
        "alt_km": 35768.45061288172,
        "timestamp": "2025-12-10T11:33:53.062876+00:00",
        "meta_object_name": "EUTELSAT 3B",
        "meta_object_id": "2014-030A",
        "meta_epoch": "2025-12-09T23:46:38.709120",
        "meta_mean_motion": 1.00271631,
        "meta_eccentricity": 0.0004702,
        "meta_inclination": 0.0624,
        "meta_ra_of_asc_node": 343.1083,
        "meta_arg_of_pericenter": 245.4543,
        "meta_mean_anomaly": 210.1786,
        "meta_ephemeris_type": 0,
        "meta_classification_type": "U",
        "meta_norad_cat_id": 39773,
        "meta_element_set_no": 999,
        "meta_rev_at_epoch": 4217,
        "meta_bstar": 0,
        "meta_mean_motion_dot": 2.3e-07,
        "meta_mean_motion_ddot": 0,
        "tle_line1": "1 39773U 14030A   25343.99072580  .00000023  00000+0  00000+0 0  9997",
        "tle_line2": "2 39773   0.0624 343.1083 0004702 245.4543 210.1786  1.00271631 42175"
      },
      "geometry": {
        "type": "Point",
        "coordinates": [
          -103.9436300230067,
          -0.08125225222074013
        ]
      }
    },
    {
      "type": "Feature",
      "properties": {
        "norad_id": 40425,
        "name": "EUTELSAT 115 WEST B",
        "group": "eutelsat",
        "lat": -0.0025612154363592824,
        "lon": 138.02807049515042,
        "alt_km": 35785.88808597802,
        "timestamp": "2025-12-10T11:33:53.062888+00:00",
        "meta_object_name": "EUTELSAT 115 WEST B",
        "meta_object_id": "2015-010B",
        "meta_epoch": "2025-12-10T04:39:38.509344",
        "meta_mean_motion": 1.00271354,
        "meta_eccentricity": 9.6e-06,
        "meta_inclination": 0.0103,
        "meta_ra_of_asc_node": 146.2902,
        "meta_arg_of_pericenter": 311.1919,
        "meta_mean_anomaly": 296.7047,
        "meta_ephemeris_type": 0,
        "meta_classification_type": "U",
        "meta_norad_cat_id": 40425,
        "meta_element_set_no": 999,
        "meta_rev_at_epoch": 3949,
        "meta_bstar": 0,
        "meta_mean_motion_dot": -2.2e-07,
        "meta_mean_motion_ddot": 0,
        "tle_line1": "1 40425U 15010B   25344.19419571 -.00000022  00000+0  00000+0 0  9990",
        "tle_line2": "2 40425   0.0103 146.2902 0000096 311.1919 296.7047  1.00271354 39498"
      },
      "geometry": {
        "type": "Point",
        "coordinates": [
          138.02807049515042,
          -0.0025612154363592824
        ]
      }
    },
    {
      "type": "Feature",
      "properties": {
        "norad_id": 40875,
        "name": "EUTELSAT 8 WEST B",
        "group": "eutelsat",
        "lat": -0.07606482343686309,
        "lon": -115.07268686435843,
        "alt_km": 35769.12750535091,
        "timestamp": "2025-12-10T11:33:53.062900+00:00",
        "meta_object_name": "EUTELSAT 8 WEST B",
        "meta_object_id": "2015-039B",
        "meta_epoch": "2025-12-09T23:54:38.674080",
        "meta_mean_motion": 1.00271522,
        "meta_eccentricity": 0.000417,
        "meta_inclination": 0.0646,
        "meta_ra_of_asc_node": 2.0291,
        "meta_arg_of_pericenter": 258.1317,
        "meta_mean_anomaly": 169.4941,
        "meta_ephemeris_type": 0,
        "meta_classification_type": "U",
        "meta_norad_cat_id": 40875,
        "meta_element_set_no": 999,
        "meta_rev_at_epoch": 3776,
        "meta_bstar": 0,
        "meta_mean_motion_dot": -6.3e-07,
        "meta_mean_motion_ddot": 0,
        "tle_line1": "1 40875U 15039B   25343.99628095 -.00000063  00000+0  00000+0 0  9995",
        "tle_line2": "2 40875   0.0646   2.0291 0004170 258.1317 169.4941  1.00271522 37762"
      },
      "geometry": {
        "type": "Point",
        "coordinates": [
          -115.07268686435843,
          -0.07606482343686309
        ]
      }
    },
    {
      "type": "Feature",
      "properties": {
        "norad_id": 41310,
        "name": "EUTELSAT 9B",
        "group": "eutelsat",
        "lat": -0.03174172599457193,
        "lon": -98.06239809175845,
        "alt_km": 35765.35445213438,
        "timestamp": "2025-12-10T11:33:53.062912+00:00",
        "meta_object_name": "EUTELSAT 9B",
        "meta_object_id": "2016-005A",
        "meta_epoch": "2025-12-10T00:54:38.687328",
        "meta_mean_motion": 1.00272522,
        "meta_eccentricity": 0.0004849,
        "meta_inclination": 0.0384,
        "meta_ra_of_asc_node": 56.914,
        "meta_arg_of_pericenter": 208.49,
        "meta_mean_anomaly": 196.2913,
        "meta_ephemeris_type": 0,
        "meta_classification_type": "U",
        "meta_norad_cat_id": 41310,
        "meta_element_set_no": 999,
        "meta_rev_at_epoch": 3622,
        "meta_bstar": 0,
        "meta_mean_motion_dot": 6.5e-07,
        "meta_mean_motion_ddot": 0,
        "tle_line1": "1 41310U 16005A   25344.03794777  .00000065  00000+0  00000+0 0  9992",
        "tle_line2": "2 41310   0.0384  56.9140 0004849 208.4900 196.2913  1.00272522 36224"
      },
      "geometry": {
        "type": "Point",
        "coordinates": [
          -98.06239809175845,
          -0.03174172599457193
        ]
      }
    },
    {
      "type": "Feature",
      "properties": {
        "norad_id": 41382,
        "name": "EUTELSAT 65 WEST A",
        "group": "eutelsat",
        "lat": -0.007350742303273573,
        "lon": -172.3076722675342,
        "alt_km": 35783.56624120874,
        "timestamp": "2025-12-10T11:33:53.062924+00:00",
        "meta_object_name": "EUTELSAT 65 WEST A",
        "meta_object_id": "2016-014A",
        "meta_epoch": "2025-12-10T04:07:38.715168",
        "meta_mean_motion": 1.00272579,
        "meta_eccentricity": 0.000262,
        "meta_inclination": 0.0501,
        "meta_ra_of_asc_node": 7.2682,
        "meta_arg_of_pericenter": 258.3578,
        "meta_mean_anomaly": 170.2329,
        "meta_ephemeris_type": 0,
        "meta_classification_type": "U",
        "meta_norad_cat_id": 41382,
        "meta_element_set_no": 999,
        "meta_rev_at_epoch": 3564,
        "meta_bstar": 0,
        "meta_mean_motion_dot": -2.73e-06,
        "meta_mean_motion_ddot": 0,
        "tle_line1": "1 41382U 16014A   25344.17197587 -.00000273  00000+0  00000+0 0  9994",
        "tle_line2": "2 41382   0.0501   7.2682 0002620 258.3578 170.2329  1.00272579 35644"
      },
      "geometry": {
        "type": "Point",
        "coordinates": [
          -172.3076722675342,
          -0.007350742303273573
        ]
      }
    },
    {
      "type": "Feature",
      "properties": {
        "norad_id": 41589,
        "name": "EUTELSAT 117 WEST B",
        "group": "eutelsat",
        "lat": -0.008483392232030386,
        "lon": 135.93512305402308,
        "alt_km": 35785.01906840679,
        "timestamp": "2025-12-10T11:33:53.062936+00:00",
        "meta_object_name": "EUTELSAT 117 WEST B",
        "meta_object_id": "2016-038B",
        "meta_epoch": "2025-12-09T14:43:38.546112",
        "meta_mean_motion": 1.00271212,
        "meta_eccentricity": 3.69e-05,
        "meta_inclination": 0.0013,
        "meta_ra_of_asc_node": 169.4503,
        "meta_arg_of_pericenter": 286.2539,
        "meta_mean_anomaly": 86.8165,
        "meta_ephemeris_type": 0,
        "meta_classification_type": "U",
        "meta_norad_cat_id": 41589,
        "meta_element_set_no": 999,
        "meta_rev_at_epoch": 3476,
        "meta_bstar": 0,
        "meta_mean_motion_dot": -9e-08,
        "meta_mean_motion_ddot": 0,
        "tle_line1": "1 41589U 16038B   25343.61364058 -.00000009  00000+0  00000+0 0  9993",
        "tle_line2": "2 41589   0.0013 169.4503 0000369 286.2539  86.8165  1.00271212 34764"
      },
      "geometry": {
        "type": "Point",
        "coordinates": [
          135.93512305402308,
          -0.008483392232030386
        ]
      }
    },
    {
      "type": "Feature",
      "properties": {
        "norad_id": 42741,
        "name": "EUTELSAT 172B",
        "group": "eutelsat",
        "lat": 0.005628382902229072,
        "lon": 64.9186199964628,
        "alt_km": 35788.23026324322,
        "timestamp": "2025-12-10T11:33:53.062948+00:00",
        "meta_object_name": "EUTELSAT 172B",
        "meta_object_id": "2017-029B",
        "meta_epoch": "2025-12-09T21:14:19.343904",
        "meta_mean_motion": 1.00266815,
        "meta_eccentricity": 2.54e-05,
        "meta_inclination": 0.0106,
        "meta_ra_of_asc_node": 88.5539,
        "meta_arg_of_pericenter": 113.0193,
        "meta_mean_anomaly": 7.8822,
        "meta_ephemeris_type": 0,
        "meta_classification_type": "U",
        "meta_norad_cat_id": 42741,
        "meta_element_set_no": 999,
        "meta_rev_at_epoch": 3183,
        "meta_bstar": 0,
        "meta_mean_motion_dot": -4e-08,
        "meta_mean_motion_ddot": 0,
        "tle_line1": "1 42741U 17029B   25343.88494611 -.00000004  00000+0  00000+0 0  9998",
        "tle_line2": "2 42741   0.0106  88.5539 0000254 113.0193   7.8822  1.00266815 31835"
      },
      "geometry": {
        "type": "Point",
        "coordinates": [
          64.9186199964628,
          0.005628382902229072
        ]
      }
    }
  ]
}